[{"OBJECT_NAME":"JILIN-1 GAOFEN 03D54","OBJECT_ID":"2022-155D","EPOCH":"2026-03-09T23:37:20.443296","MEAN_MOTION":15.68305206,"ECCENTRICITY":0.00027254,"INCLINATION":97.6021,"RA_OF_ASC_NODE":211.7883,"ARG_OF_PERICENTER":319.8773,"MEAN_ANOMALY":40.2286,"EPHEMERIS_TYPE":0,"CLASSIFICATION_TYPE":"U","NORAD_CAT_ID":54254,"ELEMENT_SET_NO":999,"REV_AT_EPOCH":18463,"BSTAR":0.00092591646,"MEAN_MOTION_DOT":0.00104667,"MEAN_MOTION_DDOT":0},{"OBJECT_NAME":"STARLINK-11199 [DTC]","OBJECT_ID":"2024-141G","EPOCH":"2026-03-09T08:07:06.385440","MEAN_MOTION":15.69716497,"ECCENTRICITY":0.00010808,"INCLINATION":53.1596,"RA_OF_ASC_NODE":88.2917,"ARG_OF_PERICENTER":107.5427,"MEAN_ANOMALY":252.5709,"EPHEMERIS_TYPE":0,"CLASSIFICATION_TYPE":"U","NORAD_CAT_ID":60404,"ELEMENT_SET_NO":999,"REV_AT_EPOCH":9168,"BSTAR":-9.805653e-6,"MEAN_MOTION_DOT":-1.777e-5,"MEAN_MOTION_DDOT":0}]
